{
  "norad_id": 68952,
  "name": "STARLINK-37308",
  "history": [
    {
      "epoch": "2026-05-12T20:00:01.999008Z",
      "apogee_km": 328.12995346790194,
      "perigee_km": 327.6779663072057,
      "latitude_deg": -22.991427000421677,
      "longitude_deg": 142.70556192345097,
      "height_km": 334.5677331680226,
      "semi_major_axis_km": 6706.040959887554,
      "eccentricity": 3.37e-05,
      "inclination_deg": 53.1597,
      "raan_deg": 331.7428,
      "arg_perigee_deg": 85.3499,
      "mean_anomaly_deg": 245.6986,
      "mean_motion_rev_day": 15.80896578
    }
  ]
}