STARLINK-37308          
1 68952U 26099B   26132.83335648 -.00031864  00000+0 -15833-3 0  9996
2 68952  53.1597 331.7428 0000337  85.3499 245.6986 15.80896578  2987
